$$SOE
2460721.500000000, A.D. 2025-Feb-15 00:00:00.0000, -1.085700469113844E+08, 3.957543064662984E+08, 1.703498782306442E+07,
2460728.500000000, A.D. 2025-Feb-22 00:00:00.0000, -1.199222565679212E+08, 3.943628482717941E+08, 1.704706039965519E+07,
2460735.500000000, A.D. 2025-Mar-01 00:00:00.0000, -1.311914438340724E+08, 3.926988723487937E+08, 1.704733403686294E+07,
2460742.500000000, A.D. 2025-Mar-08 00:00:00.0000, -1.423710178285232E+08, 3.907671212173231E+08, 1.703596487255412E+07,
2460749.500000000, A.D. 2025-Mar-15 00:00:00.0000, -1.534546450222926E+08, 3.885724658845845E+08, 1.701311587669769E+07,
2460756.500000000, A.D. 2025-Mar-22 00:00:00.0000, -1.644362498169789E+08, 3.861198924762999E+08, 1.697895651207530E+07,
2460763.500000000, A.D. 2025-Mar-29 00:00:00.0000, -1.753100131013669E+08, 3.834144871786302E+08, 1.693366210607570E+07,
2460770.500000000, A.D. 2025-Apr-05 00:00:00.0000, -1.860703685260431E+08, 3.804614226449049E+08, 1.687741316101238E+07,
2460777.500000000, A.D. 2025-Apr-12 00:00:00.0000, -1.967119984822916E+08, 3.772659459846056E+08, 1.681039478842780E+07,
2460784.500000000, A.D. 2025-Apr-19 00:00:00.0000, -2.072298300291825E+08, 3.738333674588574E+08, 1.673279621271271E+07,
2460791.500000000, A.D. 2025-Apr-26 00:00:00.0000, -2.176190305524702E+08, 3.701690496801778E+08, 1.664481030265702E+07,
2460798.500000000, A.D. 2025-May-03 00:00:00.0000, -2.278750030946051E+08, 3.662783973333312E+08, 1.654663312208463E+07,
2460805.500000000, A.D. 2025-May-10 00:00:00.0000, -2.379933813773175E+08, 3.621668474205868E+08, 1.643846349754623E+07,
2460812.500000000, A.D. 2025-May-17 00:00:00.0000, -2.479700245270061E+08, 3.578398599820437E+08, 1.632050259613936E+07,
2460819.500000000, A.D. 2025-May-24 00:00:00.0000, -2.578010113728601E+08, 3.533029092255427E+08, 1.619295349276282E+07,
2460826.500000000, A.D. 2025-May-31 00:00:00.0000, -2.674826339408493E+08, 3.485614753637046E+08, 1.605602071354981E+07,
2460833.500000000, A.D. 2025-Jun-07 00:00:00.0000, -2.770113905831487E+08, 3.436210383478842E+08, 1.590990989029086E+07,
2460840.500000000, A.D. 2025-Jun-14 00:00:00.0000, -2.863839811435289E+08, 3.384870728172475E+08, 1.575482768768089E+07,
2460847.500000000, A.D. 2025-Jun-21 00:00:00.0000, -2.955973029721407E+08, 3.331650409746129E+08, 1.559098162385052E+07,
2460854.500000000, A.D. 2025-Jun-28 00:00:00.0000, -3.046484446888906E+08, 3.276603851318480E+08, 1.541857964101146E+07,
2460861.500000000, A.D. 2025-Jul-05 00:00:00.0000, -3.135346792409307E+08, 3.219785220610204E+08, 1.523782974098626E+07,
2460868.500000000, A.D. 2025-Jul-12 00:00:00.0000, -3.222534574704378E+08, 3.161248383279030E+08, 1.504893972832543E+07,
2460875.500000000, A.D. 2025-Jul-19 00:00:00.0000, -3.308024020240009E+08, 3.101046860129375E+08, 1.485211699595338E+07,
2460882.500000000, A.D. 2025-Jul-26 00:00:00.0000, -3.391793014125093E+08, 3.039233787422234E+08, 1.464756832882571E+07,
2460889.500000000, A.D. 2025-Aug-02 00:00:00.0000, -3.473821041732164E+08, 2.975861880294583E+08, 1.443549972073872E+07,
2460896.500000000, A.D. 2025-Aug-09 00:00:00.0000, -3.554089131257102E+08, 2.910983398938810E+08, 1.421611620033909E+07,
2460903.500000000, A.D. 2025-Aug-16 00:00:00.0000, -3.632579796580778E+08, 2.844650116710535E+08, 1.398962165353172E+07,
2460910.500000000, A.D. 2025-Aug-23 00:00:00.0000, -3.709276977620559E+08, 2.776913290133465E+08, 1.375621861626153E+07,
2460917.500000000, A.D. 2025-Aug-30 00:00:00.0000, -3.784165974981284E+08, 2.707823637747775E+08, 1.351610806535369E+07,
2460924.500000000, A.D. 2025-Sep-06 00:00:00.0000, -3.857233393179856E+08, 2.637431337617681E+08, 1.326948941873179E+07,
2460931.500000000, A.D. 2025-Sep-13 00:00:00.0000, -3.928467109235795E+08, 2.565786018502394E+08, 1.301656069481689E+07,
2460938.500000000, A.D. 2025-Sep-20 00:00:00.0000, -3.997856233941756E+08, 2.492936728084485E+08, 1.275751839607394E+07,
2460945.500000000, A.D. 2025-Sep-27 00:00:00.0000, -4.065391055256394E+08, 2.418931909190566E+08, 1.249255727353455E+07,
2460952.500000000, A.D. 2025-Oct-04 00:00:00.0000, -4.131062984031738E+08, 2.343819389232171E+08, 1.222187020079273E+07,
2460959.500000000, A.D. 2025-Oct-11 00:00:00.0000, -4.194864505840428E+08, 2.267646373297470E+08, 1.194564811406541E+07,
2460966.500000000, A.D. 2025-Oct-18 00:00:00.0000, -4.256789136066583E+08, 2.190459438008476E+08, 1.166407996930367E+07,
2460973.500000000, A.D. 2025-Oct-25 00:00:00.0000, -4.316831376856267E+08, 2.112304526105706E+08, 1.137735270389436E+07,
2460980.500000000, A.D. 2025-Nov-01 00:00:00.0000, -4.374986675529103E+08, 2.033226941768557E+08, 1.108565120001410E+07,
2460987.500000000, A.D. 2025-Nov-08 00:00:00.0000, -4.431251384110245E+08, 1.953271346221980E+08, 1.078915824327044E+07,
2460994.500000000, A.D. 2025-Nov-15 00:00:00.0000, -4.485622718512017E+08, 1.872481752926087E+08, 1.048805445760579E+07,
2461001.500000000, A.D. 2025-Nov-22 00:00:00.0000, -4.538098713339398E+08, 1.790901524447502E+08, 1.018251819681334E+07,
2461008.500000000, A.D. 2025-Nov-29 00:00:00.0000, -4.588678173841141E+08, 1.708573382267692E+08, 9.872725498771206E+06,
2461015.500000000, A.D. 2025-Dec-06 00:00:00.0000, -4.637360647767944E+08, 1.625539428077300E+08, 9.558850299462661E+06,
2461022.500000000, A.D. 2025-Dec-13 00:00:00.0000, -4.684146412785722E+08, 1.541841142774720E+08, 9.241064590933345E+06,
2461029.500000000, A.D. 2025-Dec-20 00:00:00.0000, -4.729036444470710E+08, 1.457519373324520E+08, 8.919538285983287E+06,
2461036.500000000, A.D. 2025-Dec-27 00:00:00.0000, -4.772032375576172E+08, 1.372614333298415E+08, 8.594439099509507E+06,
2461043.500000000, A.D. 2026-Jan-03 00:00:00.0000, -4.813136461137400E+08, 1.287165610860135E+08, 8.265932529620148E+06,
2461050.500000000, A.D. 2026-Jan-10 00:00:00.0000, -4.852351548294894E+08, 1.201212177341343E+08, 7.934181872635275E+06,
2461057.500000000, A.D. 2026-Jan-17 00:00:00.0000, -4.889681048478072E+08, 1.114792395436536E+08, 7.599348242954649E+06,
2461064.500000000, A.D. 2026-Jan-24 00:00:00.0000, -4.925128911134239E+08, 1.027944027188580E+08, 7.261590592377424E+06,
2461071.500000000, A.D. 2026-Jan-31 00:00:00.0000, -4.958699598734874E+08, 9.407042416369575E+07, 6.921065725985777E+06,
2461078.500000000, A.D. 2026-Feb-07 00:00:00.0000, -4.990398062417558E+08, 8.531096215100379E+07, 6.577928303910945E+06,
2461085.500000000, A.D. 2026-Feb-14 00:00:00.0000, -5.020229715698500E+08, 7.651961687824315E+07, 6.232330804212391E+06,
2461092.500000000, A.D. 2026-Feb-21 00:00:00.0000, -5.048200402326457E+08, 6.769993148321262E+07, 5.884423458866831E+06,
2461099.500000000, A.D. 2026-Feb-28 00:00:00.0000, -5.074316369089667E+08, 5.885539466765272E+07, 5.534354356705669E+06,
2461106.500000000, A.D. 2026-Mar-07 00:00:00.0000, -5.098584264142922E+08, 4.998944297481440E+07, 5.182269742247287E+06,
2461113.500000000, A.D. 2026-Mar-14 00:00:00.0000, -5.121011133071588E+08, 4.110546038599970E+07, 4.828314064975396E+06,
2461120.500000000, A.D. 2026-Mar-21 00:00:00.0000, -5.141604394815372E+08, 3.220677813159956E+07, 4.472629852458009E+06,
2461127.500000000, A.D. 2026-Mar-28 00:00:00.0000, -5.160371817496499E+08, 2.329667574139712E+07, 4.115357675731225E+06,
2461134.500000000, A.D. 2026-Apr-04 00:00:00.0000, -5.177321500159827E+08, 1.437838236450245E+07, 3.756636183371034E+06,
2461141.500000000, A.D. 2026-Apr-11 00:00:00.0000, -5.192461857663839E+08, 5.455077995963305E+06, 3.396602149733905E+06,
2461148.500000000, A.D. 2026-Apr-18 00:00:00.0000, -5.205801607104703E+08, -3.470105399046623E+06, 3.035390522308416E+06,
2461155.500000000, A.D. 2026-Apr-25 00:00:00.0000, -5.217349755287591E+08, -1.239408285092442E+07, 2.673134465298417E+06,
2461162.500000000, A.D. 2026-May-02 00:00:00.0000, -5.227115586910307E+08, -2.131381547278123E+07, 2.309965394306296E+06,
2461169.500000000, A.D. 2026-May-09 00:00:00.0000, -5.235108652185209E+08, -3.022630973694022E+07, 1.946012985350875E+06,
2461176.500000000, A.D. 2026-May-16 00:00:00.0000, -5.241338750091501E+08, -3.912861680387919E+07, 1.581405134898219E+06,
2461183.500000000, A.D. 2026-May-23 00:00:00.0000, -5.245815906710303E+08, -4.801783088252429E+07, 1.216267949692490E+06,
2461190.500000000, A.D. 2026-May-30 00:00:00.0000, -5.248550369399693E+08, -5.689108630372255E+07, 8.507259830283411E+05,
2461197.500000000, A.D. 2026-Jun-06 00:00:00.0000, -5.249552619965455E+08, -6.574555658168320E+07, 4.849024788226597E+05,
2461204.500000000, A.D. 2026-Jun-13 00:00:00.0000, -5.248833370150018E+08, -7.457845526455644E+07, 1.189193033301756E+05,
2461211.500000000, A.D. 2026-Jun-20 00:00:00.0000, -5.246403544412692E+08, -8.338703564778532E+07, -2.471031505210400E+05,
2461218.500000000, A.D. 2026-Jun-27 00:00:00.0000, -5.242274266942889E+08, -9.216858969100012E+07, -6.130459583880641E+05,
2461225.500000000, A.D. 2026-Jul-04 00:00:00.0000, -5.236456852877753E+08, -1.009204469150058E+08, -9.787916230189726E+05,
2461232.500000000, A.D. 2026-Jul-11 00:00:00.0000, -5.228962801166210E+08, -1.096399734123587E+08, -1.344224030431837E+06,
2461239.500000000, A.D. 2026-Jul-18 00:00:00.0000, -5.219803788139845E+08, -1.183245709470468E+08, -1.709228410511196E+06,
2461246.500000000, A.D. 2026-Jul-25 00:00:00.0000, -5.208991661537410E+08, -1.269716761413610E+08, -2.073691304352246E+06,
2461253.500000000, A.D. 2026-Aug-01 00:00:00.0000, -5.196538434493449E+08, -1.355787597983932E+08, -2.437500546958238E+06,
2461260.500000000, A.D. 2026-Aug-08 00:00:00.0000, -5.182456277331184E+08, -1.441433263959907E+08, -2.800545288114622E+06,
2461267.500000000, A.D. 2026-Aug-15 00:00:00.0000, -5.166757502994279E+08, -1.526629133015335E+08, -3.162716052801609E+06,
2461274.500000000, A.D. 2026-Aug-22 00:00:00.0000, -5.149454553708860E+08, -1.611350884860650E+08, -3.523904671582185E+06,
2461281.500000000, A.D. 2026-Aug-29 00:00:00.0000, -5.130560011749141E+08, -1.695574481108061E+08, -3.884003983266190E+06,
2461288.500000000, A.D. 2026-Sep-05 00:00:00.0000, -5.110086612963127E+08, -1.779276168546644E+08, -4.242907740009829E+06,
$$EOE